{
  "type": "FeatureCollection",
  "features": [
    {
      "type": "Feature",
      "properties": {"name": "Washington", "type": "state"},
      "geometry": {
        "type": "Polygon",
        "coordinates": [[
          [-124.73, 48.40], [-117.03, 48.99], [-117.03, 46.00],
          [-116.92, 45.99], [-122.76, 45.55], [-123.97, 46.27],
          [-124.11, 46.86], [-124.56, 47.37], [-124.73, 48.40]
        ]]
      }
    },
    {
      "type": "Feature",
      "properties": {"name": "Oregon", "type": "state"},
      "geometry": {
        "type": "Polygon",
        "coordinates": [[
          [-124.57, 46.26], [-116.46, 45.99], [-116.78, 44.08],
          [-117.03, 43.83], [-117.03, 42.00], [-124.21, 42.00],
          [-124.55, 43.42], [-124.07, 44.66], [-124.05, 45.78],
          [-124.57, 46.26]
        ]]
      }
    },
    {
      "type": "Feature",
      "properties": {"name": "Idaho", "type": "state"},
      "geometry": {
        "type": "Polygon",
        "coordinates": [[
          [-117.03, 48.99], [-116.05, 48.99], [-116.05, 47.97],
          [-114.57, 46.63], [-114.34, 46.66], [-112.72, 44.48],
          [-111.04, 44.48], [-111.04, 42.00], [-117.03, 42.00],
          [-117.03, 48.99]
        ]]
      }
    },
    {
      "type": "Feature",
      "properties": {"name": "Montana", "type": "state"},
      "geometry": {
        "type": "Polygon",
        "coordinates": [[
          [-116.05, 48.99], [-104.04, 48.99], [-104.04, 45.00],
          [-111.04, 45.00], [-111.04, 44.48], [-112.72, 44.48],
          [-114.34, 46.66], [-114.57, 46.63], [-116.05, 47.97],
          [-116.05, 48.99]
        ]]
      }
    },
    {
      "type": "Feature",
      "properties": {"name": "British Columbia", "type": "province"},
      "geometry": {
        "type": "Polygon",
        "coordinates": [[
          [-139.06, 60.00], [-120.00, 60.00], [-120.00, 53.80],
          [-114.06, 49.00], [-117.03, 49.00], [-124.73, 48.40],
          [-126.50, 49.50], [-127.84, 51.00], [-129.80, 52.80],
          [-130.54, 54.27], [-131.70, 56.60], [-139.06, 60.00]
        ]]
      }
    }
  ]
}
